<?xml version="1.0" encoding="UTF-8"?>
<ndm xmlns:xsi="http://www.w3.org/2001/XMLSchema-instance" xsi:noNamespaceSchemaLocation="https://sanaregistry.org/r/ndmxml_unqualified/ndmxml-2.0.0-master-2.0.xsd">
<omm id="CCSDS_OMM_VERS" version="2.0">
<header><CREATION_DATE/><ORIGINATOR/></header><body><segment><metadata><OBJECT_NAME>STARLINK-33867</OBJECT_NAME><OBJECT_ID>2025-091W</OBJECT_ID><CENTER_NAME>EARTH</CENTER_NAME><REF_FRAME>TEME</REF_FRAME><TIME_SYSTEM>UTC</TIME_SYSTEM><MEAN_ELEMENT_THEORY>SGP4</MEAN_ELEMENT_THEORY></metadata><data><meanElements><EPOCH>2025-05-07T22:00:01.999584</EPOCH><MEAN_MOTION>15.94653621</MEAN_MOTION><ECCENTRICITY>.0001573</ECCENTRICITY><INCLINATION>43.0012</INCLINATION><RA_OF_ASC_NODE>348.7476</RA_OF_ASC_NODE><ARG_OF_PERICENTER>258.5609</ARG_OF_PERICENTER><MEAN_ANOMALY>15.7414</MEAN_ANOMALY></meanElements><tleParameters><EPHEMERIS_TYPE>0</EPHEMERIS_TYPE><CLASSIFICATION_TYPE>U</CLASSIFICATION_TYPE><NORAD_CAT_ID>63795</NORAD_CAT_ID><ELEMENT_SET_NO>999</ELEMENT_SET_NO><REV_AT_EPOCH>203</REV_AT_EPOCH><BSTAR>-.22123E-2</BSTAR><MEAN_MOTION_DOT>-.877623E-2</MEAN_MOTION_DOT><MEAN_MOTION_DDOT>.24456E-3</MEAN_MOTION_DDOT></tleParameters></data></segment></body></omm>
<omm id="CCSDS_OMM_VERS" version="2.0">
<header><CREATION_DATE/><ORIGINATOR/></header><body><segment><metadata><OBJECT_NAME>STARLINK-33918</OBJECT_NAME><OBJECT_ID>2025-091X</OBJECT_ID><CENTER_NAME>EARTH</CENTER_NAME><REF_FRAME>TEME</REF_FRAME><TIME_SYSTEM>UTC</TIME_SYSTEM><MEAN_ELEMENT_THEORY>SGP4</MEAN_ELEMENT_THEORY></metadata><data><meanElements><EPOCH>2025-05-07T22:00:01.999584</EPOCH><MEAN_MOTION>15.94714300</MEAN_MOTION><ECCENTRICITY>.0001675</ECCENTRICITY><INCLINATION>43.0012</INCLINATION><RA_OF_ASC_NODE>348.7457</RA_OF_ASC_NODE><ARG_OF_PERICENTER>259.6252</ARG_OF_PERICENTER><MEAN_ANOMALY>15.7442</MEAN_ANOMALY></meanElements><tleParameters><EPHEMERIS_TYPE>0</EPHEMERIS_TYPE><CLASSIFICATION_TYPE>U</CLASSIFICATION_TYPE><NORAD_CAT_ID>63796</NORAD_CAT_ID><ELEMENT_SET_NO>999</ELEMENT_SET_NO><REV_AT_EPOCH>208</REV_AT_EPOCH><BSTAR>-.22118E-2</BSTAR><MEAN_MOTION_DOT>-.880285E-2</MEAN_MOTION_DOT><MEAN_MOTION_DDOT>.24606E-3</MEAN_MOTION_DDOT></tleParameters></data></segment></body></omm>
<omm id="CCSDS_OMM_VERS" version="2.0">
<header><CREATION_DATE/><ORIGINATOR/></header><body><segment><metadata><OBJECT_NAME>STARLINK-33712</OBJECT_NAME><OBJECT_ID>2025-091Y</OBJECT_ID><CENTER_NAME>EARTH</CENTER_NAME><REF_FRAME>TEME</REF_FRAME><TIME_SYSTEM>UTC</TIME_SYSTEM><MEAN_ELEMENT_THEORY>SGP4</MEAN_ELEMENT_THEORY></metadata><data><meanElements><EPOCH>2025-05-07T22:00:01.999584</EPOCH><MEAN_MOTION>15.90816939</MEAN_MOTION><ECCENTRICITY>.0001697</ECCENTRICITY><INCLINATION>43.0012</INCLINATION><RA_OF_ASC_NODE>348.7695</RA_OF_ASC_NODE><ARG_OF_PERICENTER>267.7779</ARG_OF_PERICENTER><MEAN_ANOMALY>357.9075</MEAN_ANOMALY></meanElements><tleParameters><EPHEMERIS_TYPE>0</EPHEMERIS_TYPE><CLASSIFICATION_TYPE>U</CLASSIFICATION_TYPE><NORAD_CAT_ID>63797</NORAD_CAT_ID><ELEMENT_SET_NO>999</ELEMENT_SET_NO><REV_AT_EPOCH>203</REV_AT_EPOCH><BSTAR>-.60855E-2</BSTAR><MEAN_MOTION_DOT>-.1717135E-1</MEAN_MOTION_DOT><MEAN_MOTION_DDOT>0</MEAN_MOTION_DDOT></tleParameters></data></segment></body></omm>
<omm id="CCSDS_OMM_VERS" version="2.0">
<header><CREATION_DATE/><ORIGINATOR/></header><body><segment><metadata><OBJECT_NAME>STARLINK-33827</OBJECT_NAME><OBJECT_ID>2025-091Z</OBJECT_ID><CENTER_NAME>EARTH</CENTER_NAME><REF_FRAME>TEME</REF_FRAME><TIME_SYSTEM>UTC</TIME_SYSTEM><MEAN_ELEMENT_THEORY>SGP4</MEAN_ELEMENT_THEORY></metadata><data><meanElements><EPOCH>2025-05-08T06:00:02.000160</EPOCH><MEAN_MOTION>15.94397604</MEAN_MOTION><ECCENTRICITY>.0001798</ECCENTRICITY><INCLINATION>43.0006</INCLINATION><RA_OF_ASC_NODE>346.6523</RA_OF_ASC_NODE><ARG_OF_PERICENTER>243.5187</ARG_OF_PERICENTER><MEAN_ANOMALY>151.1894</MEAN_ANOMALY></meanElements><tleParameters><EPHEMERIS_TYPE>0</EPHEMERIS_TYPE><CLASSIFICATION_TYPE>U</CLASSIFICATION_TYPE><NORAD_CAT_ID>63798</NORAD_CAT_ID><ELEMENT_SET_NO>999</ELEMENT_SET_NO><REV_AT_EPOCH>207</REV_AT_EPOCH><BSTAR>-.2582E-2</BSTAR><MEAN_MOTION_DOT>-.1009106E-1</MEAN_MOTION_DOT><MEAN_MOTION_DDOT>.3146E-3</MEAN_MOTION_DDOT></tleParameters></data></segment></body></omm>
<omm id="CCSDS_OMM_VERS" version="2.0">
<header><CREATION_DATE/><ORIGINATOR/></header><body><segment><metadata><OBJECT_NAME>STARLINK-33899</OBJECT_NAME><OBJECT_ID>2025-091AA</OBJECT_ID><CENTER_NAME>EARTH</CENTER_NAME><REF_FRAME>TEME</REF_FRAME><TIME_SYSTEM>UTC</TIME_SYSTEM><MEAN_ELEMENT_THEORY>SGP4</MEAN_ELEMENT_THEORY></metadata><data><meanElements><EPOCH>2025-05-08T04:00:00.999936</EPOCH><MEAN_MOTION>15.94626247</MEAN_MOTION><ECCENTRICITY>.0001893</ECCENTRICITY><INCLINATION>43.0010</INCLINATION><RA_OF_ASC_NODE>347.1698</RA_OF_ASC_NODE><ARG_OF_PERICENTER>263.2635</ARG_OF_PERICENTER><MEAN_ANOMALY>14.1219</MEAN_ANOMALY></meanElements><tleParameters><EPHEMERIS_TYPE>0</EPHEMERIS_TYPE><CLASSIFICATION_TYPE>U</CLASSIFICATION_TYPE><NORAD_CAT_ID>63799</NORAD_CAT_ID><ELEMENT_SET_NO>999</ELEMENT_SET_NO><REV_AT_EPOCH>217</REV_AT_EPOCH><BSTAR>-.24383E-2</BSTAR><MEAN_MOTION_DOT>-.965114E-2</MEAN_MOTION_DOT><MEAN_MOTION_DDOT>.2907E-3</MEAN_MOTION_DDOT></tleParameters></data></segment></body></omm>
<omm id="CCSDS_OMM_VERS" version="2.0">
<header><CREATION_DATE/><ORIGINATOR/></header><body><segment><metadata><OBJECT_NAME>STARLINK-33900</OBJECT_NAME><OBJECT_ID>2025-091AB</OBJECT_ID><CENTER_NAME>EARTH</CENTER_NAME><REF_FRAME>TEME</REF_FRAME><TIME_SYSTEM>UTC</TIME_SYSTEM><MEAN_ELEMENT_THEORY>SGP4</MEAN_ELEMENT_THEORY></metadata><data><meanElements><EPOCH>2025-05-08T04:00:00.999936</EPOCH><MEAN_MOTION>15.94725780</MEAN_MOTION><ECCENTRICITY>.0002125</ECCENTRICITY><INCLINATION>43.0007</INCLINATION><RA_OF_ASC_NODE>347.1650</RA_OF_ASC_NODE><ARG_OF_PERICENTER>266.6051</ARG_OF_PERICENTER><MEAN_ANOMALY>12.5346</MEAN_ANOMALY></meanElements><tleParameters><EPHEMERIS_TYPE>0</EPHEMERIS_TYPE><CLASSIFICATION_TYPE>U</CLASSIFICATION_TYPE><NORAD_CAT_ID>63800</NORAD_CAT_ID><ELEMENT_SET_NO>999</ELEMENT_SET_NO><REV_AT_EPOCH>217</REV_AT_EPOCH><BSTAR>-.24281E-2</BSTAR><MEAN_MOTION_DOT>-.96627E-2</MEAN_MOTION_DOT><MEAN_MOTION_DDOT>.29162E-3</MEAN_MOTION_DDOT></tleParameters></data></segment></body></omm>
<omm id="CCSDS_OMM_VERS" version="2.0">
<header><CREATION_DATE/><ORIGINATOR/></header><body><segment><metadata><OBJECT_NAME>STARLINK-33975</OBJECT_NAME><OBJECT_ID>2025-091AC</OBJECT_ID><CENTER_NAME>EARTH</CENTER_NAME><REF_FRAME>TEME</REF_FRAME><TIME_SYSTEM>UTC</TIME_SYSTEM><MEAN_ELEMENT_THEORY>SGP4</MEAN_ELEMENT_THEORY></metadata><data><meanElements><EPOCH>2025-05-08T04:00:00.999936</EPOCH><MEAN_MOTION>15.94827917</MEAN_MOTION><ECCENTRICITY>.0002107</ECCENTRICITY><INCLINATION>43.0007</INCLINATION><RA_OF_ASC_NODE>347.1605</RA_OF_ASC_NODE><ARG_OF_PERICENTER>266.5613</ARG_OF_PERICENTER><MEAN_ANOMALY>14.3120</MEAN_ANOMALY></meanElements><tleParameters><EPHEMERIS_TYPE>0</EPHEMERIS_TYPE><CLASSIFICATION_TYPE>U</CLASSIFICATION_TYPE><NORAD_CAT_ID>63802</NORAD_CAT_ID><ELEMENT_SET_NO>999</ELEMENT_SET_NO><REV_AT_EPOCH>217</REV_AT_EPOCH><BSTAR>-.24315E-2</BSTAR><MEAN_MOTION_DOT>-.972894E-2</MEAN_MOTION_DOT><MEAN_MOTION_DDOT>.29558E-3</MEAN_MOTION_DDOT></tleParameters></data></segment></body></omm>
<omm id="CCSDS_OMM_VERS" version="2.0">
<header><CREATION_DATE/><ORIGINATOR/></header><body><segment><metadata><OBJECT_NAME>STARLINK-33951</OBJECT_NAME><OBJECT_ID>2025-091AD</OBJECT_ID><CENTER_NAME>EARTH</CENTER_NAME><REF_FRAME>TEME</REF_FRAME><TIME_SYSTEM>UTC</TIME_SYSTEM><MEAN_ELEMENT_THEORY>SGP4</MEAN_ELEMENT_THEORY></metadata><data><meanElements><EPOCH>2025-05-08T04:00:00.999936</EPOCH><MEAN_MOTION>15.94929694</MEAN_MOTION><ECCENTRICITY>.0001822</ECCENTRICITY><INCLINATION>43.0009</INCLINATION><RA_OF_ASC_NODE>347.1568</RA_OF_ASC_NODE><ARG_OF_PERICENTER>260.8653</ARG_OF_PERICENTER><MEAN_ANOMALY>21.7094</MEAN_ANOMALY></meanElements><tleParameters><EPHEMERIS_TYPE>0</EPHEMERIS_TYPE><CLASSIFICATION_TYPE>U</CLASSIFICATION_TYPE><NORAD_CAT_ID>63803</NORAD_CAT_ID><ELEMENT_SET_NO>999</ELEMENT_SET_NO><REV_AT_EPOCH>211</REV_AT_EPOCH><BSTAR>-.24315E-2</BSTAR><MEAN_MOTION_DOT>-.978141E-2</MEAN_MOTION_DOT><MEAN_MOTION_DDOT>.2988E-3</MEAN_MOTION_DDOT></tleParameters></data></segment></body></omm>

</ndm>